ISS (ZARYA)             
1 25544U 98067A   26095.81141531  .00008309  00000+0  15990-3 0  9992
2 25544  51.6329 298.2672 0006354 276.3215  83.7049 15.48791307560533
CSS (TIANHE)            
1 48274U 21035A   26095.89999512  .00029649  00000+0  33283-3 0  9991
2 48274  41.4683  42.4237 0003645 135.7211 224.3921 15.61975413281863
HTV-X1                  
1 66174U 25241A   26095.90866928  .00006383  00000+0  21142-3 0  9990
2 66174  51.6366 301.8530 0007379 277.9536  82.0608 15.32553609 25110
POISK                   
1 36086U 09060A   26095.81141531  .00008309  00000+0  15990-3 0  9990
2 36086  51.6329 298.2672 0006354 276.3215  83.7049 15.48791307560222
ISS (NAUKA)             
1 49044U 21066A   26095.81141531  .00008309  00000+0  15990-3 0  9998
2 49044  51.6329 298.2672 0006354 276.3215  83.7049 15.48791307560264
FREGAT DEB              
1 49271U 11037PF  26095.51225242  .00008541  00000+0  12423-1 0  9990
2 49271  51.6426 220.2066 0955047 120.8974 248.9327 12.40936816216024
CSS (WENTIAN)           
1 53239U 22085A   26095.89999512  .00029649  00000+0  33283-3 0  9994
2 53239  41.4683  42.4237 0003645 135.7211 224.3921 15.61975413281152
CSS (MENGTIAN)          
1 54216U 22143A   26095.89999512  .00029649  00000+0  33283-3 0  9995
2 54216  41.4683  42.4237 0003645 135.7211 224.3921 15.61975413281158
TIANZHOU-9              
1 64786U 25149A   26095.89999512  .00029649  00000+0  33283-3 0  9997
2 64786  41.4683  42.4237 0003645 135.7211 224.3921 15.61975413281151
PROGRESS-MS 32          
1 65586U 25204A   26095.81141531  .00008309  00000+0  15990-3 0  9995
2 65586  51.6329 298.2672 0006354 276.3215  83.7049 15.48791307554503
YOTSUBA-KULOVER         
1 65941U 98067XN  26095.69567936  .00696812  23270-3  12875-2 0  9992
2 65941  51.6141 275.5791 0008665 276.0110  83.9912 16.00515818 27795
BOTAN                   
1 65943U 98067XQ  26095.77572269  .00617649  17787-3  12574-2 0  9991
2 65943  51.6174 275.3932 0008519 270.9470  89.0564 15.98819258 27801
HRC MONOBLOCK CAMERA    
1 66052U 98067XR  26095.79772752  .00067135  00000+0  66088-3 0  9999
2 66052  51.6275 288.4191 0003871 229.5804 130.4854 15.65340581 26639
