[
  {
    "OBJECT_NAME": "ISS (ZARYA)",
    "OBJECT_ID": "1998-067A",
    "EPOCH": "2026-04-05T19:28:26.282784",
    "MEAN_MOTION": 15.48791307,
    "ECCENTRICITY": 0.00063547,
    "INCLINATION": 51.6329,
    "RA_OF_ASC_NODE": 298.2672,
    "ARG_OF_PERICENTER": 276.3215,
    "MEAN_ANOMALY": 83.7049,
    "EPHEMERIS_TYPE": 0,
    "CLASSIFICATION_TYPE": "U",
    "NORAD_CAT_ID": 25544,
    "ELEMENT_SET_NO": 999,
    "REV_AT_EPOCH": 56053,
    "BSTAR": 0.00015990409,
    "MEAN_MOTION_DOT": 8.309e-5,
    "MEAN_MOTION_DDOT": 0
  },
  {
    "OBJECT_NAME": "POISK",
    "OBJECT_ID": "2009-060A",
    "EPOCH": "2026-04-05T19:28:26.282784",
    "MEAN_MOTION": 15.48791307,
    "ECCENTRICITY": 0.00063547,
    "INCLINATION": 51.6329,
    "RA_OF_ASC_NODE": 298.2672,
    "ARG_OF_PERICENTER": 276.3215,
    "MEAN_ANOMALY": 83.7049,
    "EPHEMERIS_TYPE": 0,
    "CLASSIFICATION_TYPE": "U",
    "NORAD_CAT_ID": 36086,
    "ELEMENT_SET_NO": 999,
    "REV_AT_EPOCH": 56022,
    "BSTAR": 0.00015990409,
    "MEAN_MOTION_DOT": 8.309e-5,
    "MEAN_MOTION_DDOT": 0
  },
  {
    "OBJECT_NAME": "CSS (TIANHE)",
    "OBJECT_ID": "2021-035A",
    "EPOCH": "2026-04-05T21:35:59.578368",
    "MEAN_MOTION": 15.61975413,
    "ECCENTRICITY": 0.00036451,
    "INCLINATION": 41.4683,
    "RA_OF_ASC_NODE": 42.4237,
    "ARG_OF_PERICENTER": 135.7211,
    "MEAN_ANOMALY": 224.3921,
    "EPHEMERIS_TYPE": 0,
    "CLASSIFICATION_TYPE": "U",
    "NORAD_CAT_ID": 48274,
    "ELEMENT_SET_NO": 999,
    "REV_AT_EPOCH": 28186,
    "BSTAR": 0.00033282638,
    "MEAN_MOTION_DOT": 0.00029649,
    "MEAN_MOTION_DDOT": 0
  },
  {
    "OBJECT_NAME": "ISS (NAUKA)",
    "OBJECT_ID": "2021-066A",
    "EPOCH": "2026-04-05T19:28:26.282784",
    "MEAN_MOTION": 15.48791307,
    "ECCENTRICITY": 0.00063547,
    "INCLINATION": 51.6329,
    "RA_OF_ASC_NODE": 298.2672,
    "ARG_OF_PERICENTER": 276.3215,
    "MEAN_ANOMALY": 83.7049,
    "EPHEMERIS_TYPE": 0,
    "CLASSIFICATION_TYPE": "U",
    "NORAD_CAT_ID": 49044,
    "ELEMENT_SET_NO": 999,
    "REV_AT_EPOCH": 56026,
    "BSTAR": 0.00015990409,
    "MEAN_MOTION_DOT": 8.309e-5,
    "MEAN_MOTION_DDOT": 0
  },
  {
    "OBJECT_NAME": "FREGAT DEB",
    "OBJECT_ID": "2011-037PF",
    "EPOCH": "2026-04-05T12:17:38.609088",
    "MEAN_MOTION": 12.40936816,
    "ECCENTRICITY": 0.09550473,
    "INCLINATION": 51.6426,
    "RA_OF_ASC_NODE": 220.2066,
    "ARG_OF_PERICENTER": 120.8974,
    "MEAN_ANOMALY": 248.9327,
    "EPHEMERIS_TYPE": 0,
    "CLASSIFICATION_TYPE": "U",
    "NORAD_CAT_ID": 49271,
    "ELEMENT_SET_NO": 999,
    "REV_AT_EPOCH": 21602,
    "BSTAR": 0.012423119,
    "MEAN_MOTION_DOT": 8.541e-5,
    "MEAN_MOTION_DDOT": 0
  },
  {
    "OBJECT_NAME": "CSS (WENTIAN)",
    "OBJECT_ID": "2022-085A",
    "EPOCH": "2026-04-05T21:35:59.578368",
    "MEAN_MOTION": 15.61975413,
    "ECCENTRICITY": 0.00036451,
    "INCLINATION": 41.4683,
    "RA_OF_ASC_NODE": 42.4237,
    "ARG_OF_PERICENTER": 135.7211,
    "MEAN_ANOMALY": 224.3921,
    "EPHEMERIS_TYPE": 0,
    "CLASSIFICATION_TYPE": "U",
    "NORAD_CAT_ID": 53239,
    "ELEMENT_SET_NO": 999,
    "REV_AT_EPOCH": 28115,
    "BSTAR": 0.00033282638,
    "MEAN_MOTION_DOT": 0.00029649,
    "MEAN_MOTION_DDOT": 0
  },
  {
    "OBJECT_NAME": "CSS (MENGTIAN)",
    "OBJECT_ID": "2022-143A",
    "EPOCH": "2026-04-05T21:35:59.578368",
    "MEAN_MOTION": 15.61975413,
    "ECCENTRICITY": 0.00036451,
    "INCLINATION": 41.4683,
    "RA_OF_ASC_NODE": 42.4237,
    "ARG_OF_PERICENTER": 135.7211,
    "MEAN_ANOMALY": 224.3921,
    "EPHEMERIS_TYPE": 0,
    "CLASSIFICATION_TYPE": "U",
    "NORAD_CAT_ID": 54216,
    "ELEMENT_SET_NO": 999,
    "REV_AT_EPOCH": 28115,
    "BSTAR": 0.00033282638,
    "MEAN_MOTION_DOT": 0.00029649,
    "MEAN_MOTION_DDOT": 0
  },
  {
    "OBJECT_NAME": "TIANZHOU-9",
    "OBJECT_ID": "2025-149A",
    "EPOCH": "2026-04-05T21:35:59.578368",
    "MEAN_MOTION": 15.61975413,
    "ECCENTRICITY": 0.00036451,
    "INCLINATION": 41.4683,
    "RA_OF_ASC_NODE": 42.4237,
    "ARG_OF_PERICENTER": 135.7211,
    "MEAN_ANOMALY": 224.3921,
    "EPHEMERIS_TYPE": 0,
    "CLASSIFICATION_TYPE": "U",
    "NORAD_CAT_ID": 64786,
    "ELEMENT_SET_NO": 999,
    "REV_AT_EPOCH": 28115,
    "BSTAR": 0.00033282638,
    "MEAN_MOTION_DOT": 0.00029649,
    "MEAN_MOTION_DDOT": 0
  },
  {
    "OBJECT_NAME": "PROGRESS-MS 32",
    "OBJECT_ID": "2025-204A",
    "EPOCH": "2026-04-05T19:28:26.282784",
    "MEAN_MOTION": 15.48791307,
    "ECCENTRICITY": 0.00063547,
    "INCLINATION": 51.6329,
    "RA_OF_ASC_NODE": 298.2672,
    "ARG_OF_PERICENTER": 276.3215,
    "MEAN_ANOMALY": 83.7049,
    "EPHEMERIS_TYPE": 0,
    "CLASSIFICATION_TYPE": "U",
    "NORAD_CAT_ID": 65586,
    "ELEMENT_SET_NO": 999,
    "REV_AT_EPOCH": 55450,
    "BSTAR": 0.00015990409,
    "MEAN_MOTION_DOT": 8.309e-5,
    "MEAN_MOTION_DDOT": 0
  },
  {
    "OBJECT_NAME": "YOTSUBA-KULOVER",
    "OBJECT_ID": "1998-067XN",
    "EPOCH": "2026-04-05T16:41:46.696704",
    "MEAN_MOTION": 16.00515818,
    "ECCENTRICITY": 0.00086657,
    "INCLINATION": 51.6141,
    "RA_OF_ASC_NODE": 275.5791,
    "ARG_OF_PERICENTER": 276.011,
    "MEAN_ANOMALY": 83.9912,
    "EPHEMERIS_TYPE": 0,
    "CLASSIFICATION_TYPE": "U",
    "NORAD_CAT_ID": 65941,
    "ELEMENT_SET_NO": 999,
    "REV_AT_EPOCH": 2779,
    "BSTAR": 0.0012875192,
    "MEAN_MOTION_DOT": 0.00696812,
    "MEAN_MOTION_DDOT": 0.00023270335
  },
  {
    "OBJECT_NAME": "BOTAN",
    "OBJECT_ID": "1998-067XQ",
    "EPOCH": "2026-04-05T18:37:02.440416",
    "MEAN_MOTION": 15.98819258,
    "ECCENTRICITY": 0.0008519,
    "INCLINATION": 51.6174,
    "RA_OF_ASC_NODE": 275.3932,
    "ARG_OF_PERICENTER": 270.947,
    "MEAN_ANOMALY": 89.0564,
    "EPHEMERIS_TYPE": 0,
    "CLASSIFICATION_TYPE": "U",
    "NORAD_CAT_ID": 65943,
    "ELEMENT_SET_NO": 999,
    "REV_AT_EPOCH": 2780,
    "BSTAR": 0.0012574418,
    "MEAN_MOTION_DOT": 0.00617649,
    "MEAN_MOTION_DDOT": 0.00017787488
  },
  {
    "OBJECT_NAME": "HRC MONOBLOCK CAMERA",
    "OBJECT_ID": "1998-067XR",
    "EPOCH": "2026-04-05T19:08:43.657728",
    "MEAN_MOTION": 15.65340581,
    "ECCENTRICITY": 0.00038716,
    "INCLINATION": 51.6275,
    "RA_OF_ASC_NODE": 288.4191,
    "ARG_OF_PERICENTER": 229.5804,
    "MEAN_ANOMALY": 130.4854,
    "EPHEMERIS_TYPE": 0,
    "CLASSIFICATION_TYPE": "U",
    "NORAD_CAT_ID": 66052,
    "ELEMENT_SET_NO": 999,
    "REV_AT_EPOCH": 2663,
    "BSTAR": 0.00066088263,
    "MEAN_MOTION_DOT": 0.00067135,
    "MEAN_MOTION_DDOT": 0
  },
  {
    "OBJECT_NAME": "HTV-X1",
    "OBJECT_ID": "2025-241A",
    "EPOCH": "2026-04-05T21:48:29.025792",
    "MEAN_MOTION": 15.32553609,
    "ECCENTRICITY": 0.00073792,
    "INCLINATION": 51.6366,
    "RA_OF_ASC_NODE": 301.853,
    "ARG_OF_PERICENTER": 277.9536,
    "MEAN_ANOMALY": 82.0608,
    "EPHEMERIS_TYPE": 0,
    "CLASSIFICATION_TYPE": "U",
    "NORAD_CAT_ID": 66174,
    "ELEMENT_SET_NO": 999,
    "REV_AT_EPOCH": 2511,
    "BSTAR": 0.00021141614,
    "MEAN_MOTION_DOT": 6.383e-5,
    "MEAN_MOTION_DDOT": 0
  }
]
